NORAD_CAT_ID,OBJECT_NAME,OBJECT_TYPE,EPOCH,MEAN_MOTION,ECCENTRICITY,INCLINATION,RA_OF_ASC_NODE,ARG_OF_PERICENTER,MEAN_ANOMALY,BSTAR,MEAN_MOTION_DOT,MEAN_MOTION_DDOT,TLE_LINE0,TLE_LINE1,TLE_LINE2,SEMIMAJOR_AXIS,PERIOD,APOGEE,PERIGEE,DECAYED
53914.0,STARLINK-5040,PAYLOAD,2022-11-25 14:00:01,15.72625861,0.0004944,53.2165,308.0281,292.398,247.5692,-0.0097196,-0.01183638,0.0,0 STARLINK-5040,1 53914U 22119AE  22329.58334491 -.01183638  00000-0 -97196-2 0  9998,2 53914  53.2165 308.0281 0004944 292.3980 247.5692 15.72625861 10135,6729.533,91.567,354.725,348.07,0.0
53914.0,STARLINK-5040,PAYLOAD,2022-11-25 22:00:00,15.71811632,0.0006443999999999,53.2169,306.3796,276.1627,351.4907,-0.010078,-0.01186096,0.0,0 STARLINK-5040,1 53914U 22119AE  22329.91667824 -.01186096  00000-0 -10078-1 0  9998,2 53914  53.2169 306.3796 0006444 276.1627 351.4907 15.71811632  1301,6731.856,91.614,358.059,349.3830000000001,0.0
53914.0,STARLINK-5040,PAYLOAD,2022-11-26 12:00:00,15.70347652,0.0005221,53.2162,303.5039,276.7957,51.9675,-0.010131,-0.01126577,0.0,0 STARLINK-5040,1 53914U 22119AE  22330.50001157 -.01126577  00000-0 -10131-1 0  9994,2 53914  53.2162 303.5039 0005221 276.7957  51.9675 15.70347652 10272,6736.04,91.699,361.422,354.38800000000015,0.0
53914.0,STARLINK-5040,PAYLOAD,2022-11-26 14:00:01,15.70146338,0.0004311,53.2168,303.0896,280.8446,159.263,-0.010335,-0.01137575,0.0,0 STARLINK-5040,1 53914U 22119AE  22330.58334491 -.01137575  00000-0 -10335-1 0  9998,2 53914  53.2168 303.0896 0004311 280.8446 159.2630 15.70146338  1307,6736.615,91.711,361.385,355.576,0.0
53914.0,STARLINK-5040,PAYLOAD,2022-11-26 22:00:00,15.69230906,0.0002896,53.2164,301.4503,284.1939,240.7104,-0.0093061,-0.00999529,0.0,0 STARLINK-5040,1 53914U 22119AE  22330.91667824 -.00999529  00000-0 -93061-2 0  9996,2 53914  53.2164 301.4503 0002896 284.1939 240.7104 15.69230906  1305,6739.235,91.765,363.052,359.148,0.0
53914.0,STARLINK-5040,PAYLOAD,2022-11-27 06:00:00,15.68543295,4.13e-05,53.2169,299.8125,198.0829,50.5317,-0.011348,-0.01182652,0.0,0 STARLINK-5040,1 53914U 22119AE  22331.25001157 -.01182652  00000-0 -11348-1 0  9994,2 53914  53.2169 299.8125 0000413 198.0829  50.5317 15.68543295 10393,6741.204000000002,91.805,363.348,362.791,0.0
53914.0,STARLINK-5040,PAYLOAD,2022-11-27 14:00:01,15.67697557,9.09e-05,53.217,298.1721,75.8321,255.5947,-0.011283,-0.01140088,0.0,0 STARLINK-5040,1 53914U 22119AE  22331.58334491 -.01140088  00000-0 -11283-1 0  9995,2 53914  53.2170 298.1721 0000909  75.8321 255.5947 15.67697557  1305,6743.629,91.854,366.107,364.881,0.0
53914.0,STARLINK-5040,PAYLOAD,2022-11-27 22:00:00,15.66870971,9.81e-05,53.2167,296.5369,84.3438,328.9048,-0.011456,-0.01120984,0.0,0 STARLINK-5040,1 53914U 22119AE  22331.91667824 -.01120984  00000-0 -11456-1 0  9996,2 53914  53.2167 296.5369 0000981  84.3438 328.9048 15.66870971 10506,6746.0,91.903,368.527,367.203,0.0
53914.0,STARLINK-5040,PAYLOAD,2022-11-28 14:00:01,15.65259914,0.0001141,53.217,293.2717,76.1579,137.783,-0.012514,-0.01144715,0.0,0 STARLINK-5040,1 53914U 22119AE  22332.58334491 -.01144715  00000-0 -12514-1 0  9995,2 53914  53.2170 293.2717 0001141  76.1579 137.7830 15.65259914 10608,6750.628000000002,91.998,373.264,371.723,0.0
53914.0,STARLINK-5040,PAYLOAD,2022-11-28 22:00:01,15.64493862,0.0001243,53.2167,291.6421,78.7357,214.129,-0.013672,-0.01206061,0.0,0 STARLINK-5040,1 53914U 22119AE  22332.91668981 -.01206061  00000-0 -13672-1 0  9995,2 53914  53.2167 291.6421 0001243  78.7357 214.1290 15.64493862  1301,6752.831999999999,92.043,375.536,373.857,0.0
53914.0,STARLINK-5040,PAYLOAD,2022-11-29 14:00:01,15.62813644,0.0001147,53.2172,288.3896,73.196,14.5271,-0.013674,-0.0113561,0.0,0 STARLINK-5040,1 53914U 22119AE  22333.58335648 -.01135610  00000-0 -13674-1 0  9993,2 53914  53.2172 288.3896 0001147  73.1960  14.5271 15.62813644 10761,6757.670999999999,92.142,380.311,378.761,0.0
53914.0,STARLINK-5040,PAYLOAD,2022-11-29 22:00:00,15.62015669,0.0001264999999999,53.2166,286.7664,74.6413,88.9572,-0.014374,-0.01154888,0.0,0 STARLINK-5040,1 53914U 22119AE  22333.91667824 -.01154888  00000-0 -14374-1 0  9990,2 53914  53.2166 286.7664 0001265  74.6413  88.9572 15.62015669  1309,6759.972,92.189,382.692,380.982,0.0
53914.0,STARLINK-5040,PAYLOAD,2022-11-30 06:00:00,15.61185231,0.0001281,53.2176,285.1462,71.435,167.1431,-0.01454,-0.0113321,0.0,0 STARLINK-5040,1 53914U 22119AE  22334.25001157 -.01133210  00000-0 -14540-1 0  9990,2 53914  53.2176 285.1462 0001281  71.4350 167.1431 15.61185231 10869,6762.369000000002,92.238,385.101,383.36800000000005,0.0
53914.0,STARLINK-5040,PAYLOAD,2022-11-30 14:00:01,15.603736800000002,0.0001072,53.2176,283.5252,73.6584,238.9786,-0.015064,-0.01137183,0.0,0 STARLINK-5040,1 53914U 22119AE  22334.58335648 -.01137183  00000-0 -15064-1 0  9996,2 53914  53.2176 283.5252 0001072  73.6584 238.9786 15.60373680  1304,6764.714,92.286,387.304,385.854,0.0
53914.0,STARLINK-5040,PAYLOAD,2022-11-30 22:00:00,15.59558639,0.0001083,53.2177,281.9076,69.0618,316.5264,-0.015498,-0.01134105,0.0,0 STARLINK-5040,1 53914U 22119AE  22334.91667824 -.01134105  00000-0 -15498-1 0  9999,2 53914  53.2177 281.9076 0001083  69.0618 316.5264 15.59558639 10974,6767.071,92.334,389.668,388.203,0.0
53914.0,STARLINK-5040,PAYLOAD,2022-12-01 14:00:01,15.57931042,0.0001222,53.2175,278.67900000000003,84.4777,84.2084,-0.016482,-0.011336,0.0,0 STARLINK-5040,1 53914U 22119AE  22335.58334491 -.01133600  00000-0 -16482-1 0  9997,2 53914  53.2175 278.6790 0001222  84.4777  84.2084 15.57931042  1307,6771.783,92.43,394.475,392.82,0.0
53914.0,STARLINK-5040,PAYLOAD,2022-12-01 20:00:01,15.57334253,0.0001291,53.2164,277.4705,69.6602,61.7348,-0.017095,-0.0114801,0.0,0 STARLINK-5040,1 53914U 22119AE  22335.83335648 -.01148010  00000-0 -17095-1 0  9992,2 53914  53.2164 277.4705 0001291  69.6602  61.7348 15.57334253 11110,6773.513000000001,92.466,396.252,394.503,0.0
53914.0,STARLINK-5040,PAYLOAD,2022-12-01 22:00:00,15.57125214,0.0001238,53.2166,277.0681,73.7051,165.0584,-0.017149,-0.011431,0.0,0 STARLINK-5040,1 53914U 22119AE  22335.91667824 -.01143100  00000-0 -17149-1 0  9990,2 53914  53.2166 277.0681 0001238  73.7051 165.0584 15.57125214  1301,6774.119000000002,92.478,396.823,395.145,0.0
53914.0,STARLINK-5040,PAYLOAD,2022-12-02 14:00:01,15.5548087,0.0001017,53.2167,273.8517,77.12,298.882,-0.017835,-0.01120191,0.0,0 STARLINK-5040,1 53914U 22119AE  22336.58334491 -.01120191  00000-0 -17835-1 0  9992,2 53914  53.2167 273.8517 0001017  77.1200 298.8820 15.55480870  1301,6778.892,92.576,401.447,400.068,0.0
53914.0,STARLINK-5040,PAYLOAD,2022-12-02 22:00:00,15.547119899999998,0.0001179,53.2165,272.2456,72.7618,10.3676,-0.019445,-0.01180358,0.0,0 STARLINK-5040,1 53914U 22119AE  22336.91667824 -.01180358  00000-0 -19445-1 0  9998,2 53914  53.2165 272.2456 0001179  72.7618  10.3676 15.54711990 11280,6781.127,92.622,403.791,402.192,0.0
53914.0,STARLINK-5040,PAYLOAD,2022-12-03 14:00:01,15.53072025,0.0001272,53.2171,269.0406,83.6553,130.8435,-0.020311,-0.01162783,0.0,0 STARLINK-5040,1 53914U 22119AE  22337.58334491 -.01162783  00000-0 -20311-1 0  9999,2 53914  53.2171 269.0406 0001272  83.6553 130.8435 15.53072025  1300,6785.9,92.719,408.628,406.902,0.0
53914.0,STARLINK-5040,PAYLOAD,2022-12-03 22:00:00,15.52247059,0.0001174,53.2169,267.4406,84.095,194.6245,-0.02063,-0.01147709,0.0,0 STARLINK-5040,1 53914U 22119AE  22337.91667824 -.01147709  00000-0 -20630-1 0  9990,2 53914  53.2169 267.4406 0001174  84.0950 194.6245 15.52247059  1303,6788.304,92.769,410.966,409.372,0.0
53914.0,STARLINK-5040,PAYLOAD,2022-12-04 14:00:01,15.50466721,9.17e-05,53.2173,264.2465,80.1729,324.0716,-0.012124,-0.00647623,0.0,0 STARLINK-5040,1 53914U 22119AE  22338.58334491 -.00647623  00000-0 -12124-1 0  9993,2 53914  53.2173 264.2465 0000917  80.1729 324.0716 15.50466721 11549,6793.499,92.875,415.987,414.741,0.0
53914.0,STARLINK-5040,PAYLOAD,2022-12-04 22:00:00,15.50074763,0.0001306,53.2151,262.6552,88.726,16.7701,-0.0047659,-0.00263803,0.0,0 STARLINK-5040,1 53914U 22119AE  22338.91667824 -.00263803  00000-0 -47659-2 0  9995,2 53914  53.2151 262.6552 0001306  88.7260  16.7701 15.50074763  1304,6794.645,92.899,417.397,415.622,0.0
53914.0,STARLINK-5040,PAYLOAD,2022-12-05 06:00:00,15.49944832,0.0001357,53.2128,261.0657,79.3475,87.1903,-0.00063079,-0.00036163,0.0,0 STARLINK-5040,1 53914U 22119AE  22339.25001157 -.00036163  00000-0 -63079-3 0  9996,2 53914  53.2128 261.0657 0001357  79.3475  87.1903 15.49944832 11642,6795.024,92.907,417.811,415.967,0.0
53914.0,STARLINK-5040,PAYLOAD,2022-12-05 14:00:01,15.49876931,0.0001195,53.213,259.4704,89.4055,138.1764,0.0007481,0.00042224,0.0,0 STARLINK-5040,1 53914U 22119AE  22339.58335648  .00042224  00000-0  74810-3 0  9995,2 53914  53.2130 259.4704 0001195  89.4055 138.1764 15.49876931  1303,6795.223000000001,92.911,417.9,416.276,0.0
53914.0,STARLINK-5040,PAYLOAD,2022-12-05 22:00:01,15.49939454,0.0001372,53.2132,257.8779,89.6662,198.8318,-0.0020741,-0.00116656,0.0,0 STARLINK-5040,1 53914U 22119AE  22339.91668981 -.00116656  00000-0 -20741-2 0  9997,2 53914  53.2132 257.8779 0001372  89.6662 198.8318 15.49939454  1300,6795.04,92.907,417.837,415.973,0.0
53914.0,STARLINK-5040,PAYLOAD,2022-12-06 14:00:01,15.50017638,0.0001272,53.2156,254.6885,81.9522,328.3385,-0.0098083,-0.00523884,0.0,0 STARLINK-5040,1 53914U 22119AE  22340.58335648 -.00523884  00000-0 -98083-2 0  9992,2 53914  53.2156 254.6885 0001272  81.9522 328.3385 15.50017638 11856,6794.812,92.902,417.541,415.812,0.0
53914.0,STARLINK-5040,PAYLOAD,2022-12-06 22:00:00,15.49698552,0.0001256,53.2168,253.0947,93.8425,17.2635,-0.01624,-0.00837185,0.0,0 STARLINK-5040,1 53914U 22119AE  22340.91667824 -.00837185  00000-0 -16240-1 0  9999,2 53914  53.2168 253.0947 0001256  93.8425  17.2635 15.49698552 11903,6795.744000000002,92.921,418.463,416.756,0.0
